[{"OBJECT_NAME":"HONGHU 2","OBJECT_ID":"2023-193C","EPOCH":"2026-03-09T23:21:07.139520","MEAN_MOTION":15.21543878,"ECCENTRICITY":0.00399876,"INCLINATION":97.2779,"RA_OF_ASC_NODE":62.3901,"ARG_OF_PERICENTER":264.1736,"MEAN_ANOMALY":95.4941,"EPHEMERIS_TYPE":0,"CLASSIFICATION_TYPE":"U","NORAD_CAT_ID":58555,"ELEMENT_SET_NO":999,"REV_AT_EPOCH":8691,"BSTAR":0.0061775359,"MEAN_MOTION_DOT":0.00144707,"MEAN_MOTION_DDOT":0},{"OBJECT_NAME":"STARLINK-33931","OBJECT_ID":"2025-101N","EPOCH":"2026-03-09T04:39:54.488160","MEAN_MOTION":15.27602185,"ECCENTRICITY":0.00012252,"INCLINATION":43.0027,"RA_OF_ASC_NODE":0.4019,"ARG_OF_PERICENTER":290.8123,"MEAN_ANOMALY":69.2597,"EPHEMERIS_TYPE":0,"CLASSIFICATION_TYPE":"U","NORAD_CAT_ID":64006,"ELEMENT_SET_NO":999,"REV_AT_EPOCH":4700,"BSTAR":0.00097277126,"MEAN_MOTION_DOT":0.00026621,"MEAN_MOTION_DDOT":0}]
